{
    "links": {
        "self": "http://www.neowsapp.com/rest/v1/neo/3440791?api_key=iIulBulltgU6a56xZRHN4H3l9WmuAYTsLGpBGhQ2"
    },
    "id": "3440791",
    "neo_reference_id": "3440791",
    "name": "(2008 WH96)",
    "designation": "2008 WH96",
    "nasa_jpl_url": "http://ssd.jpl.nasa.gov/sbdb.cgi?sstr=3440791",
    "absolute_magnitude_h": 23.1,
    "estimated_diameter": {
        "kilometers": {
            "estimated_diameter_min": 0.063760979,
            "estimated_diameter_max": 0.1425738833
        },
        "meters": {
            "estimated_diameter_min": 63.7609789875,
            "estimated_diameter_max": 142.5738833281
        },
        "miles": {
            "estimated_diameter_min": 0.0396192233,
            "estimated_diameter_max": 0.0885912765
        },
        "feet": {
            "estimated_diameter_min": 209.1895703015,
            "estimated_diameter_max": 467.7620993781
        }
    },
    "is_potentially_hazardous_asteroid": false,
    "close_approach_data": [
        {
            "close_approach_date": "1958-11-09",
            "close_approach_date_full": "1958-Nov-09 05:50",
            "epoch_date_close_approach": -351713400000,
            "relative_velocity": {
                "kilometers_per_second": "12.5779994628",
                "kilometers_per_hour": "45280.7980659198",
                "miles_per_hour": "28135.7269982378"
            },
            "miss_distance": {
                "astronomical": "0.0768902459",
                "lunar": "29.9103056551",
                "kilometers": "11502617.010416233",
                "miles": "7147394.7811726954"
            },
            "orbiting_body": "Earth"
        },
        {
            "close_approach_date": "2008-11-04",
            "close_approach_date_full": "2008-Nov-04 07:24",
            "epoch_date_close_approach": 1225783440000,
            "relative_velocity": {
                "kilometers_per_second": "10.5384125338",
                "kilometers_per_hour": "37938.2851216602",
                "miles_per_hour": "23573.3749968449"
            },
            "miss_distance": {
                "astronomical": "0.0774902668",
                "lunar": "30.1437137852",
                "kilometers": "11592378.859011716",
                "miles": "7203170.2075490408"
            },
            "orbiting_body": "Earth"
        }
    ],
    "orbital_data": {
        "orbit_id": "8",
        "orbit_determination_date": "2017-04-06 09:02:01",
        "first_observation_date": "2008-11-30",
        "last_observation_date": "2008-12-06",
        "data_arc_in_days": 6,
        "observations_used": 17,
        "orbit_uncertainty": "9",
        "minimum_orbit_intersection": ".016818",
        "jupiter_tisserand_invariant": "4.717",
        "epoch_osculation": "2454803.5",
        "eccentricity": ".4050250725015758",
        "semi_major_axis": "1.374770306793135",
        "inclination": "7.309913414670289",
        "ascending_node_longitude": "75.55433838423798",
        "orbital_period": "588.767246535083",
        "perihelion_distance": ".8179538636112316",
        "perihelion_argument": "259.1395269748268",
        "aphelion_distance": "1.931586749975037",
        "perihelion_time": "2454723.920278108939",
        "mean_anomaly": "48.65878672664047",
        "mean_motion": ".6114470567420544",
        "equinox": "J2000",
        "orbit_class": {
            "orbit_class_type": "APO",
            "orbit_class_description": "Near-Earth asteroid orbits which cross the Earth’s orbit similar to that of 1862 Apollo",
            "orbit_class_range": "a (semi-major axis) > 1.0 AU; q (perihelion) < 1.017 AU"
        }
    },
    "is_sentry_object": false
}